{
  "type": "FeatureCollection",
  "features": [
    {
      "type": "Feature",
      "properties": {
        "norad_id": 41890,
        "name": "CYGFM07",
        "group": "weather",
        "lat": -34.920393960723416,
        "lon": -3.7998524754579077,
        "alt_km": 425.70182046267564,
        "timestamp": "2025-12-02T15:49:06.826340+00:00",
        "meta_object_name": "CYGFM07",
        "meta_object_id": "2016-078G",
        "meta_epoch": "2025-12-02T00:44:47.459904",
        "meta_mean_motion": 15.49334806,
        "meta_eccentricity": 0.00088463,
        "meta_inclination": 34.9467,
        "meta_ra_of_asc_node": 91.629,
        "meta_arg_of_pericenter": 116.2049,
        "meta_mean_anomaly": 243.9583,
        "meta_ephemeris_type": 0,
        "meta_classification_type": "U",
        "meta_norad_cat_id": 41890,
        "meta_element_set_no": 999,
        "meta_rev_at_epoch": 49829,
        "meta_bstar": 0.00046561966,
        "meta_mean_motion_dot": 0.0002637,
        "meta_mean_motion_ddot": 0,
        "tle_line1": "1 41890U 16078G   25336.03110486  .00026370  00000+0  46562-3 0  9999",
        "tle_line2": "2 41890  34.9467  91.6290 0008846 116.2049 243.9583 15.49334806498292"
      },
      "geometry": {
        "type": "Point",
        "coordinates": [
          -3.7998524754579077,
          -34.920393960723416
        ]
      }
    },
    {
      "type": "Feature",
      "properties": {
        "norad_id": 41891,
        "name": "CYGFM03",
        "group": "weather",
        "lat": 33.160343948792686,
        "lon": -159.93595173295762,
        "alt_km": 407.1036914077731,
        "timestamp": "2025-12-02T15:49:06.826359+00:00",
        "meta_object_name": "CYGFM03",
        "meta_object_id": "2016-078H",
        "meta_epoch": "2025-12-01T17:42:27.482112",
        "meta_mean_motion": 15.49224271,
        "meta_eccentricity": 0.00082414,
        "meta_inclination": 34.9416,
        "meta_ra_of_asc_node": 95.4619,
        "meta_arg_of_pericenter": 98.9519,
        "meta_mean_anomaly": 261.2136,
        "meta_ephemeris_type": 0,
        "meta_classification_type": "U",
        "meta_norad_cat_id": 41891,
        "meta_element_set_no": 999,
        "meta_rev_at_epoch": 49822,
        "meta_bstar": 0.00044220645,
        "meta_mean_motion_dot": 0.00024934,
        "meta_mean_motion_ddot": 0,
        "tle_line1": "1 41891U 16078H   25335.73781808  .00024934  00000+0  44221-3 0  9992",
        "tle_line2": "2 41891  34.9416  95.4619 0008241  98.9519 261.2136 15.49224271498225"
      },
      "geometry": {
        "type": "Point",
        "coordinates": [
          -159.93595173295762,
          33.160343948792686
        ]
      }
    },
    {
      "type": "Feature",
      "properties": {
        "norad_id": 43010,
        "name": "FENGYUN 3D",
        "group": "weather",
        "lat": -4.341716417725099,
        "lon": -56.49250503863417,
        "alt_km": 830.1406945113167,
        "timestamp": "2025-12-02T15:49:06.826371+00:00",
        "meta_object_name": "FENGYUN 3D",
        "meta_object_id": "2017-072A",
        "meta_epoch": "2025-12-02T05:41:25.465920",
        "meta_mean_motion": 14.19678786,
        "meta_eccentricity": 5.545e-05,
        "meta_inclination": 98.9879,
        "meta_ra_of_asc_node": 302.3908,
        "meta_arg_of_pericenter": 228.5095,
        "meta_mean_anomaly": 131.6033,
        "meta_ephemeris_type": 0,
        "meta_classification_type": "U",
        "meta_norad_cat_id": 43010,
        "meta_element_set_no": 999,
        "meta_rev_at_epoch": 41704,
        "meta_bstar": 9.3974503e-05,
        "meta_mean_motion_dot": 1.53e-06,
        "meta_mean_motion_ddot": 0,
        "tle_line1": "1 43010U 17072A   25336.23710030  .00000153  00000+0  93975-4 0  9995",
        "tle_line2": "2 43010  98.9879 302.3908 0000554 228.5095 131.6033 14.19678786417040"
      },
      "geometry": {
        "type": "Point",
        "coordinates": [
          -56.49250503863417,
          -4.341716417725099
        ]
      }
    },
    {
      "type": "Feature",
      "properties": {
        "norad_id": 43013,
        "name": "NOAA 20 (JPSS-1)",
        "group": "weather",
        "lat": 25.574783908236828,
        "lon": 97.29775446521684,
        "alt_km": 825.1966608149041,
        "timestamp": "2025-12-02T15:49:06.826383+00:00",
        "meta_object_name": "NOAA 20 (JPSS-1)",
        "meta_object_id": "2017-073A",
        "meta_epoch": "2025-12-02T06:38:14.446176",
        "meta_mean_motion": 14.19521248,
        "meta_eccentricity": 0.00020465,
        "meta_inclination": 98.7583,
        "meta_ra_of_asc_node": 272.6885,
        "meta_arg_of_pericenter": 102.1921,
        "meta_mean_anomaly": 257.9485,
        "meta_ephemeris_type": 0,
        "meta_classification_type": "U",
        "meta_norad_cat_id": 43013,
        "meta_element_set_no": 999,
        "meta_rev_at_epoch": 41653,
        "meta_bstar": 8.6366977e-05,
        "meta_mean_motion_dot": 1.38e-06,
        "meta_mean_motion_ddot": 0,
        "tle_line1": "1 43013U 17073A   25336.27655609  .00000138  00000+0  86367-4 0  9993",
        "tle_line2": "2 43013  98.7583 272.6885 0002046 102.1921 257.9485 14.19521248416535"
      },
      "geometry": {
        "type": "Point",
        "coordinates": [
          97.29775446521684,
          25.574783908236828
        ]
      }
    },
    {
      "type": "Feature",
      "properties": {
        "norad_id": 43226,
        "name": "GOES 17",
        "group": "weather",
        "lat": 0.30414600561137684,
        "lon": -140.52388965663624,
        "alt_km": 35777.278521537955,
        "timestamp": "2025-12-02T15:49:06.826398+00:00",
        "meta_object_name": "GOES 17",
        "meta_object_id": "2018-022A",
        "meta_epoch": "2025-12-02T04:47:54.172320",
        "meta_mean_motion": 1.0026989,
        "meta_eccentricity": 0.00034673,
        "meta_inclination": 0.43,
        "meta_ra_of_asc_node": 89.3615,
        "meta_arg_of_pericenter": 180.8608,
        "meta_mean_anomaly": 143.5588,
        "meta_ephemeris_type": 0,
        "meta_classification_type": "U",
        "meta_norad_cat_id": 43226,
        "meta_element_set_no": 999,
        "meta_rev_at_epoch": 2844,
        "meta_bstar": 0,
        "meta_mean_motion_dot": -1.61e-06,
        "meta_mean_motion_ddot": 0,
        "tle_line1": "1 43226U 18022A   25336.19993255 -.00000161  00000+0  00000+0 0  9999",
        "tle_line2": "2 43226   0.4300  89.3615 0003467 180.8608 143.5588  1.00269890 28446"
      },
      "geometry": {
        "type": "Point",
        "coordinates": [
          -140.52388965663624,
          0.30414600561137684
        ]
      }
    },
    {
      "type": "Feature",
      "properties": {
        "norad_id": 43491,
        "name": "FENGYUN 2H",
        "group": "weather",
        "lat": -1.9918986773189855,
        "lon": 28.418170959118132,
        "alt_km": 35796.342152625846,
        "timestamp": "2025-12-02T15:49:06.826411+00:00",
        "meta_object_name": "FENGYUN 2H",
        "meta_object_id": "2018-050A",
        "meta_epoch": "2025-12-02T02:10:37.269696",
        "meta_mean_motion": 1.00271571,
        "meta_eccentricity": 0.00028442,
        "meta_inclination": 2.521,
        "meta_ra_of_asc_node": 81.4468,
        "meta_arg_of_pericenter": 161.4684,
        "meta_mean_anomaly": 300.2994,
        "meta_ephemeris_type": 0,
        "meta_classification_type": "U",
        "meta_norad_cat_id": 43491,
        "meta_element_set_no": 999,
        "meta_rev_at_epoch": 2746,
        "meta_bstar": 0,
        "meta_mean_motion_dot": -1.09e-06,
        "meta_mean_motion_ddot": 0,
        "tle_line1": "1 43491U 18050A   25336.09070914 -.00000109  00000+0  00000+0 0  9993",
        "tle_line2": "2 43491   2.5210  81.4468 0002844 161.4684 300.2994  1.00271571 27462"
      },
      "geometry": {
        "type": "Point",
        "coordinates": [
          28.418170959118132,
          -1.9918986773189855
        ]
      }
    },
    {
      "type": "Feature",
      "properties": {
        "norad_id": 43689,
        "name": "METOP-C",
        "group": "weather",
        "lat": -42.785079875823875,
        "lon": -153.55941923287202,
        "alt_km": 828.0737442471236,
        "timestamp": "2025-12-02T15:49:06.826422+00:00",
        "meta_object_name": "METOP-C",
        "meta_object_id": "2018-087A",
        "meta_epoch": "2025-12-02T04:38:07.759968",
        "meta_mean_motion": 14.21505295,
        "meta_eccentricity": 0.00017489,
        "meta_inclination": 98.6945,
        "meta_ra_of_asc_node": 34.1236,
        "meta_arg_of_pericenter": 59.4741,
        "meta_mean_anomaly": 300.6608,
        "meta_ephemeris_type": 0,
        "meta_classification_type": "U",
        "meta_norad_cat_id": 43689,
        "meta_element_set_no": 999,
        "meta_rev_at_epoch": 36684,
        "meta_bstar": 9.8625114e-05,
        "meta_mean_motion_dot": 1.72e-06,
        "meta_mean_motion_ddot": 0,
        "tle_line1": "1 43689U 18087A   25336.19314537  .00000172  00000+0  98625-4 0  9999",
        "tle_line2": "2 43689  98.6945  34.1236 0001748  59.4741 300.6608 14.21505295366846"
      },
      "geometry": {
        "type": "Point",
        "coordinates": [
          -153.55941923287202,
          -42.785079875823875
        ]
      }
    }
  ]
}